{"type": "FeatureCollection", "features": [ {"type": "Feature", "properties": {"norad_id": 38953, "name": "BEIDOU-2 G6 (C02)", "group": "beidou", "lat": -2.995103742563211, "lon": 25.843449937393185, "alt_km": 35757.66866863156, "timestamp": "2025-12-09T14:52:26.426909+00:00", "meta": {"OBJECT_NAME": "BEIDOU-2 G6 (C02)", "OBJECT_ID": "2012-059A", "EPOCH": "2025-12-08T20:51:04.199040", "MEAN_MOTION": 1.00269836, "ECCENTRICITY": 0.00074931, "INCLINATION": 3.9388, "RA_OF_ASC_NODE": 75.5346, "ARG_OF_PERICENTER": 289.1403, "MEAN_ANOMALY": 109.993, "EPHEMERIS_TYPE": 0, "CLASSIFICATION_TYPE": "U", "NORAD_CAT_ID": 38953, "ELEMENT_SET_NO": 999, "REV_AT_EPOCH": 4800, "BSTAR": 0, "MEAN_MOTION_DOT": -1.74e-06, "MEAN_MOTION_DDOT": 0}, "tle": {"line1": "1 38953U 12059A   25342.86879860 -.00000174  00000+0  00000+0 0  9994", "line2": "2 38953   3.9388  75.5346 0007493 289.1403 109.9930  1.00269836 48009"}}, "geometry": {"type": "Point", "coordinates": [25.843449937393185, -2.995103742563211]}}, {"type": "Feature", "properties": {"norad_id": 40549, "name": "BEIDOU-3S IGSO-1S (C31)", "group": "beidou", "lat": 49.015592990991266, "lon": 39.07773032648845, "alt_km": 35791.269507396595, "timestamp": "2025-12-09T14:52:26.426921+00:00", "meta": {"OBJECT_NAME": "BEIDOU-3S IGSO-1S (C31)", "OBJECT_ID": "2015-019A", "EPOCH": "2025-12-07T20:38:38.671584", "MEAN_MOTION": 1.00293516, "ECCENTRICITY": 0.00368211, "INCLINATION": 49.562, "RA_OF_ASC_NODE": 297.7693, "ARG_OF_PERICENTER": 193.8977, "MEAN_ANOMALY": 348.5751, "EPHEMERIS_TYPE": 0, "CLASSIFICATION_TYPE": "U", "NORAD_CAT_ID": 40549, "ELEMENT_SET_NO": 999, "REV_AT_EPOCH": 3915, "BSTAR": 0, "MEAN_MOTION_DOT": -1.86e-06, "MEAN_MOTION_DDOT": 0}, "tle": {"line1": "1 40549U 15019A   25341.86016981 -.00000186  00000+0  00000+0 0  9996", "line2": "2 40549  49.5620 297.7693 0036821 193.8977 348.5751  1.00293516 39155"}}, "geometry": {"type": "Point", "coordinates": [39.07773032648845, 49.015592990991266]}}, {"type": "Feature", "properties": {"norad_id": 40748, "name": "BEIDOU-3S M2S (C58)", "group": "beidou", "lat": -51.49772978814531, "lon": -169.94834285891756, "alt_km": 21500.885173441733, "timestamp": "2025-12-09T14:52:26.426933+00:00", "meta": {"OBJECT_NAME": "BEIDOU-3S M2S (C58)", "OBJECT_ID": "2015-037A", "EPOCH": "2025-12-08T16:56:06.142560", "MEAN_MOTION": 1.86229071, "ECCENTRICITY": 0.00122828, "INCLINATION": 55.0424, "RA_OF_ASC_NODE": 308.6021, "ARG_OF_PERICENTER": 268.3899, "MEAN_ANOMALY": 91.4573, "EPHEMERIS_TYPE": 0, "CLASSIFICATION_TYPE": "U", "NORAD_CAT_ID": 40748, "ELEMENT_SET_NO": 999, "REV_AT_EPOCH": 7057, "BSTAR": 0, "MEAN_MOTION_DOT": -7.3e-07, "MEAN_MOTION_DDOT": 0}, "tle": {"line1": "1 40748U 15037A   25342.70562665 -.00000073  00000+0  00000+0 0  9991", "line2": "2 40748  55.0424 308.6021 0012282 268.3899  91.4573  1.86229071 70579"}}, "geometry": {"type": "Point", "coordinates": [-169.94834285891756, -51.49772978814531]}}, {"type": "Feature", "properties": {"norad_id": 40749, "name": "BEIDOU-3S M1S (C57)", "group": "beidou", "lat": 54.18509197833658, "lon": 52.86522647661596, "alt_km": 21521.22892913878, "timestamp": "2025-12-09T14:52:26.426945+00:00", "meta": {"OBJECT_NAME": "BEIDOU-3S M1S (C57)", "OBJECT_ID": "2015-037B", "EPOCH": "2025-12-08T22:28:18.289056", "MEAN_MOTION": 1.86253835, "ECCENTRICITY": 0.00034213, "INCLINATION": 55.0388, "RA_OF_ASC_NODE": 308.5837, "ARG_OF_PERICENTER": 357.7489, "MEAN_ANOMALY": 2.238, "EPHEMERIS_TYPE": 0, "CLASSIFICATION_TYPE": "U", "NORAD_CAT_ID": 40749, "ELEMENT_SET_NO": 999, "REV_AT_EPOCH": 7058, "BSTAR": 0, "MEAN_MOTION_DOT": -7.4e-07, "MEAN_MOTION_DDOT": 0}, "tle": {"line1": "1 40749U 15037B   25342.93632279 -.00000074  00000+0  00000+0 0  9997", "line2": "2 40749  55.0388 308.5837 0003421 357.7489   2.2380  1.86253835 70588"}}, "geometry": {"type": "Point", "coordinates": [52.86522647661596, 54.18509197833658]}}, {"type": "Feature", "properties": {"norad_id": 40938, "name": "BEIDOU-3S IGSO-2S (C56)", "group": "beidou", "lat": 31.813150798200425, "lon": 49.11094975052497, "alt_km": 35624.898345934824, "timestamp": "2025-12-09T14:52:26.426957+00:00", "meta": {"OBJECT_NAME": "BEIDOU-3S IGSO-2S (C56)", "OBJECT_ID": "2015-053A", "EPOCH": "2025-12-07T17:59:38.817312", "MEAN_MOTION": 1.00270783, "ECCENTRICITY": 0.0060962, "INCLINATION": 49.5194, "RA_OF_ASC_NODE": 261.0646, "ARG_OF_PERICENTER": 188.6217, "MEAN_ANOMALY": 353.0712, "EPHEMERIS_TYPE": 0, "CLASSIFICATION_TYPE": "U", "NORAD_CAT_ID": 40938, "ELEMENT_SET_NO": 999, "REV_AT_EPOCH": 3743, "BSTAR": 0, "MEAN_MOTION_DOT": -1.42e-06, "MEAN_MOTION_DDOT": 0}, "tle": {"line1": "1 40938U 15053A   25341.74975483 -.00000142  00000+0  00000+0 0  9996", "line2": "2 40938  49.5194 261.0646 0060962 188.6217 353.0712  1.00270783 37435"}}, "geometry": {"type": "Point", "coordinates": [49.11094975052497, 31.813150798200425]}}, {"type": "Feature", "properties": {"norad_id": 41434, "name": "BEIDOU-2 IGSO-6 (C13)", "group": "beidou", "lat": -4.286463915970465, "lon": 37.48165838527311, "alt_km": 35930.562933396315, "timestamp": "2025-12-09T14:52:26.426969+00:00", "meta": {"OBJECT_NAME": "BEIDOU-2 IGSO-6 (C13)", "OBJECT_ID": "2016-021A", "EPOCH": "2025-12-03T15:53:57.382080", "MEAN_MOTION": 1.00293531, "ECCENTRICITY": 0.00596341, "INCLINATION": 59.9536, "RA_OF_ASC_NODE": 39.991, "ARG_OF_PERICENTER": 228.541, "MEAN_ANOMALY": 135.1173, "EPHEMERIS_TYPE": 0, "CLASSIFICATION_TYPE": "U", "NORAD_CAT_ID": 41434, "ELEMENT_SET_NO": 999, "REV_AT_EPOCH": 3552, "BSTAR": 0, "MEAN_MOTION_DOT": -1.61e-06, "MEAN_MOTION_DDOT": 0}, "tle": {"line1": "1 41434U 16021A   25337.66246970 -.00000161  00000+0  00000+0 0  9993", "line2": "2 41434  59.9536  39.9910 0059634 228.5410 135.1173  1.00293531 35525"}}, "geometry": {"type": "Point", "coordinates": [37.48165838527311, -4.286463915970465]}}, {"type": "Feature", "properties": {"norad_id": 41586, "name": "BEIDOU-2 G7 (C03)", "group": "beidou", "lat": -0.4496218488394646, "lon": 52.168830228406065, "alt_km": 35769.54036303569, "timestamp": "2025-12-09T14:52:26.426982+00:00", "meta": {"OBJECT_NAME": "BEIDOU-2 G7 (C03)", "OBJECT_ID": "2016-037A", "EPOCH": "2025-12-09T02:58:38.764992", "MEAN_MOTION": 1.00268678, "ECCENTRICITY": 0.00043453, "INCLINATION": 1.748, "RA_OF_ASC_NODE": 67.6955, "ARG_OF_PERICENTER": 1.8302, "MEAN_ANOMALY": 163.7219, "EPHEMERIS_TYPE": 0, "CLASSIFICATION_TYPE": "U", "NORAD_CAT_ID": 41586, "ELEMENT_SET_NO": 999, "REV_AT_EPOCH": 498, "BSTAR": 0, "MEAN_MOTION_DOT": -3.51e-06, "MEAN_MOTION_DDOT": 0}, "tle": {"line1": "1 41586U 16037A   25343.12405978 -.00000351  00000+0  00000+0 0  9992", "line2": "2 41586   1.7480  67.6955 0004345   1.8302 163.7219  1.00268678  4982"}}, "geometry": {"type": "Point", "coordinates": [52.168830228406065, -0.4496218488394646]}}, {"type": "Feature", "properties": {"norad_id": 43001, "name": "BEIDOU-3 M1 (C19)", "group": "beidou", "lat": 17.718809229552452, "lon": 81.53402131759846, "alt_km": 21520.599097129823, "timestamp": "2025-12-09T14:52:26.426993+00:00", "meta": {"OBJECT_NAME": "BEIDOU-3 M1 (C19)", "OBJECT_ID": "2017-069A", "EPOCH": "2025-12-07T23:26:52.374048", "MEAN_MOTION": 1.86230858, "ECCENTRICITY": 0.0009017, "INCLINATION": 56.5233, "RA_OF_ASC_NODE": 69.3913, "ARG_OF_PERICENTER": 303.8137, "MEAN_ANOMALY": 56.1206, "EPHEMERIS_TYPE": 0, "CLASSIFICATION_TYPE": "U", "NORAD_CAT_ID": 43001, "ELEMENT_SET_NO": 999, "REV_AT_EPOCH": 5504, "BSTAR": 0, "MEAN_MOTION_DOT": -4.4e-07, "MEAN_MOTION_DDOT": 0}, "tle": {"line1": "1 43001U 17069A   25341.97699507 -.00000044  00000+0  00000+0 0  9995", "line2": "2 43001  56.5233  69.3913 0009017 303.8137  56.1206  1.86230858 55042"}}, "geometry": {"type": "Point", "coordinates": [81.53402131759846, 17.718809229552452]}}, {"type": "Feature", "properties": {"norad_id": 43002, "name": "BEIDOU-3 M2 (C20)", "group": "beidou", "lat": 47.88086009623683, "lon": 116.33794942327765, "alt_km": 21522.407958611497, "timestamp": "2025-12-09T14:52:26.427005+00:00", "meta": {"OBJECT_NAME": "BEIDOU-3 M2 (C20)", "OBJECT_ID": "2017-069B", "EPOCH": "2025-12-08T23:44:32.826912", "MEAN_MOTION": 1.86230548, "ECCENTRICITY": 0.00062161, "INCLINATION": 56.5232, "RA_OF_ASC_NODE": 69.3945, "ARG_OF_PERICENTER": 332.7308, "MEAN_ANOMALY": 27.2585, "EPHEMERIS_TYPE": 0, "CLASSIFICATION_TYPE": "U", "NORAD_CAT_ID": 43002, "ELEMENT_SET_NO": 999, "REV_AT_EPOCH": 5505, "BSTAR": 0, "MEAN_MOTION_DOT": -4.6e-07, "MEAN_MOTION_DDOT": 0}, "tle": {"line1": "1 43002U 17069B   25342.98926883 -.00000046  00000+0  00000+0 0  9990", "line2": "2 43002  56.5232  69.3945 0006216 332.7308  27.2585  1.86230548 55052"}}, "geometry": {"type": "Point", "coordinates": [116.33794942327765, 47.88086009623683]}}, {"type": "Feature", "properties": {"norad_id": 43107, "name": "BEIDOU-3 M7 (C27)", "group": "beidou", "lat": -41.85454679344455, "lon": 168.61961941897886, "alt_km": 21539.66801156338, "timestamp": "2025-12-09T14:52:26.427016+00:00", "meta": {"OBJECT_NAME": "BEIDOU-3 M7 (C27)", "OBJECT_ID": "2018-003A", "EPOCH": "2025-12-08T17:34:34.070592", "MEAN_MOTION": 1.86232165, "ECCENTRICITY": 0.00025535, "INCLINATION": 54.5005, "RA_OF_ASC_NODE": 308.9546, "ARG_OF_PERICENTER": 71.3868, "MEAN_ANOMALY": 288.6293, "EPHEMERIS_TYPE": 0, "CLASSIFICATION_TYPE": "U", "NORAD_CAT_ID": 43107, "ELEMENT_SET_NO": 999, "REV_AT_EPOCH": 5380, "BSTAR": 0, "MEAN_MOTION_DOT": -7.5e-07, "MEAN_MOTION_DDOT": 0}, "tle": {"line1": "1 43107U 18003A   25342.73233878 -.00000075  00000+0  00000+0 0  9995", "line2": "2 43107  54.5005 308.9546 0002553  71.3868 288.6293  1.86232165 53807"}}, "geometry": {"type": "Point", "coordinates": [168.61961941897886, -41.85454679344455]}}]}